{"fetched_at":"2026-07-17T06:37:53.255Z","source":"https://celestrak.org/NORAD/elements/gp.php?GROUP=planet&FORMAT=JSON","constellation":"tanager","records":[{"OBJECT_NAME":"TANAGER-1","OBJECT_ID":"2024-149AR","EPOCH":"2026-07-16T16:54:33.779232","CLASSIFICATION_TYPE":"U","MEAN_MOTION":15.439327,"ECCENTRICITY":0.0002237,"INCLINATION":97.2316,"RA_OF_ASC_NODE":291.8277,"ARG_OF_PERICENTER":121.956,"MEAN_ANOMALY":238.1906,"EPHEMERIS_TYPE":0,"NORAD_CAT_ID":60507,"ELEMENT_SET_NO":999,"REV_AT_EPOCH":10759,"BSTAR":0.0000057487,"MEAN_MOTION_DOT":0.00000177,"MEAN_MOTION_DDOT":0}]}
